{
  "type": "FeatureCollection",
  "metadata": {
    "name": "MOIL Mining Zones",
    "description": "Active mining zones, extraction benches, exploration blocks and waste areas across MOIL mines. Balaghat zones are derived from existing gis/geojson/mining_zones.geojson.",
    "data_type": "DEMO",
    "note": "Zone geometries are approximate representations for visualization. Replace with actual survey data when available."
  },
  "features": [
    {
      "type": "Feature",
      "id": "ZONE_BAL_NORTH_A",
      "properties": {
        "zone_id": "Z01",
        "mine_id": "M01",
        "mine_name": "Balaghat Mine",
        "name": "North Bench Pit A",
        "status": "ACTIVE_EXTRACTION",
        "current_bench_level": "-120m RL",
        "active_equipment_count": 4,
        "daily_target_tons": 450,
        "safety_clearance": "APPROVED",
        "data_type": "DEMO"
      },
      "geometry": {
        "type": "Polygon",
        "coordinates": [
          [
            [80.182, 21.815],
            [80.192, 21.815],
            [80.1915, 21.8195],
            [80.1815, 21.819],
            [80.182, 21.815]
          ]
        ]
      }
    },
    {
      "type": "Feature",
      "id": "ZONE_BAL_CENTRAL_B",
      "properties": {
        "zone_id": "Z02",
        "mine_id": "M01",
        "mine_name": "Balaghat Mine",
        "name": "Central Main Pit B",
        "status": "HIGH_EXTRACTION",
        "current_bench_level": "-160m RL",
        "active_equipment_count": 6,
        "daily_target_tons": 520,
        "safety_clearance": "APPROVED",
        "data_type": "DEMO"
      },
      "geometry": {
        "type": "Polygon",
        "coordinates": [
          [
            [80.18, 21.81],
            [80.19, 21.81],
            [80.1895, 21.8145],
            [80.1795, 21.8145],
            [80.18, 21.81]
          ]
        ]
      }
    },
    {
      "type": "Feature",
      "id": "ZONE_BAL_SOUTH_C",
      "properties": {
        "zone_id": "Z03",
        "mine_id": "M01",
        "mine_name": "Balaghat Mine",
        "name": "South Expansion Zone C",
        "status": "DEVELOPMENT_BENCH",
        "current_bench_level": "-60m RL",
        "active_equipment_count": 2,
        "daily_target_tons": 250,
        "safety_clearance": "RESTRICTED_MONSOON",
        "data_type": "DEMO"
      },
      "geometry": {
        "type": "Polygon",
        "coordinates": [
          [
            [80.176, 21.804],
            [80.187, 21.804],
            [80.1865, 21.809],
            [80.1755, 21.809],
            [80.176, 21.804]
          ]
        ]
      }
    },
    {
      "type": "Feature",
      "id": "ZONE_BAL_EAST_D",
      "properties": {
        "zone_id": "Z04",
        "mine_id": "M01",
        "mine_name": "Balaghat Mine",
        "name": "East Exploration Block D",
        "status": "GEOLOGICAL_PROSPECTING",
        "current_bench_level": "Surface (+320m RL)",
        "active_equipment_count": 1,
        "daily_target_tons": 0,
        "safety_clearance": "APPROVED",
        "data_type": "DEMO"
      },
      "geometry": {
        "type": "Polygon",
        "coordinates": [
          [
            [80.191, 21.811],
            [80.199, 21.811],
            [80.1985, 21.816],
            [80.1905, 21.816],
            [80.191, 21.811]
          ]
        ]
      }
    },
    {
      "type": "Feature",
      "id": "ZONE_BAL_WEST_E",
      "properties": {
        "zone_id": "Z05",
        "mine_id": "M01",
        "mine_name": "Balaghat Mine",
        "name": "West Overburden Dump E",
        "status": "WASTE_STABILIZATION",
        "current_bench_level": "Surface (+340m RL)",
        "active_equipment_count": 1,
        "daily_target_tons": 0,
        "safety_clearance": "RESTRICTED",
        "data_type": "DEMO"
      },
      "geometry": {
        "type": "Polygon",
        "coordinates": [
          [
            [80.17, 21.808],
            [80.178, 21.808],
            [80.1775, 21.813],
            [80.1695, 21.813],
            [80.17, 21.808]
          ]
        ]
      }
    },
    {
      "type": "Feature",
      "id": "ZONE_KAN_MAIN_A",
      "properties": {
        "zone_id": "Z06",
        "mine_id": "M05",
        "mine_name": "Kandri Mine",
        "name": "Kandri Main Extraction Level",
        "status": "ACTIVE_EXTRACTION",
        "current_bench_level": "-90m RL",
        "active_equipment_count": 3,
        "daily_target_tons": 320,
        "safety_clearance": "APPROVED",
        "data_type": "DEMO"
      },
      "geometry": {
        "type": "Polygon",
        "coordinates": [
          [
            [79.258, 21.414],
            [79.270, 21.414],
            [79.269, 21.409],
            [79.257, 21.409],
            [79.258, 21.414]
          ]
        ]
      }
    },
    {
      "type": "Feature",
      "id": "ZONE_KAN_SOUTH_B",
      "properties": {
        "zone_id": "Z07",
        "mine_id": "M05",
        "mine_name": "Kandri Mine",
        "name": "Kandri South Development",
        "status": "DEVELOPMENT_BENCH",
        "current_bench_level": "-40m RL",
        "active_equipment_count": 2,
        "daily_target_tons": 180,
        "safety_clearance": "APPROVED",
        "data_type": "DEMO"
      },
      "geometry": {
        "type": "Polygon",
        "coordinates": [
          [
            [79.260, 21.408],
            [79.272, 21.408],
            [79.271, 21.403],
            [79.259, 21.403],
            [79.260, 21.408]
          ]
        ]
      }
    },
    {
      "type": "Feature",
      "id": "ZONE_DON_PIT_A",
      "properties": {
        "zone_id": "Z08",
        "mine_id": "M09",
        "mine_name": "Dongri Buzurg Mine",
        "name": "Dongri Open Pit A",
        "status": "ACTIVE_EXTRACTION",
        "current_bench_level": "+280m RL",
        "active_equipment_count": 5,
        "daily_target_tons": 600,
        "safety_clearance": "APPROVED",
        "data_type": "DEMO"
      },
      "geometry": {
        "type": "Polygon",
        "coordinates": [
          [
            [79.681, 21.549],
            [79.693, 21.549],
            [79.692, 21.544],
            [79.680, 21.544],
            [79.681, 21.549]
          ]
        ]
      }
    },
    {
      "type": "Feature",
      "id": "ZONE_DON_PIT_B",
      "properties": {
        "zone_id": "Z09",
        "mine_id": "M09",
        "mine_name": "Dongri Buzurg Mine",
        "name": "Dongri South Bench B",
        "status": "DEVELOPMENT_BENCH",
        "current_bench_level": "+300m RL",
        "active_equipment_count": 2,
        "daily_target_tons": 250,
        "safety_clearance": "RESTRICTED_MONSOON",
        "data_type": "DEMO"
      },
      "geometry": {
        "type": "Polygon",
        "coordinates": [
          [
            [79.683, 21.543],
            [79.694, 21.543],
            [79.693, 21.539],
            [79.682, 21.539],
            [79.683, 21.543]
          ]
        ]
      }
    }
  ]
}
