{
  "type": "FeatureCollection",
  "metadata": {
    "mine_id": "MINE_BALAGHAT_01"
  },
  "features": [
    {
      "type": "Feature",
      "id": "ZONE_NORTH_A",
      "properties": {
        "zone_id": "ZONE_NORTH_A",
        "name": "North Bench Pit A",
        "status": "ACTIVE_EXTRACTION",
        "current_bench_level": "-120m RL",
        "active_equipment_count": 4,
        "daily_target_tons": 450,
        "safety_clearance": "APPROVED",
        "fill": "#3b82f6",
        "fill-opacity": 0.35
      },
      "geometry": {
        "type": "Polygon",
        "coordinates": [
          [
            [
              80.182,
              21.815
            ],
            [
              80.192,
              21.815
            ],
            [
              80.1915,
              21.8195
            ],
            [
              80.1815,
              21.819
            ],
            [
              80.182,
              21.815
            ]
          ]
        ]
      }
    },
    {
      "type": "Feature",
      "id": "ZONE_CENTRAL_B",
      "properties": {
        "zone_id": "ZONE_CENTRAL_B",
        "name": "Central Main Pit B",
        "status": "HIGH_EXTRACTION",
        "current_bench_level": "-160m RL",
        "active_equipment_count": 6,
        "daily_target_tons": 520,
        "safety_clearance": "APPROVED",
        "fill": "#10b981",
        "fill-opacity": 0.35
      },
      "geometry": {
        "type": "Polygon",
        "coordinates": [
          [
            [
              80.18,
              21.81
            ],
            [
              80.19,
              21.81
            ],
            [
              80.1895,
              21.8145
            ],
            [
              80.1795,
              21.8145
            ],
            [
              80.18,
              21.81
            ]
          ]
        ]
      }
    },
    {
      "type": "Feature",
      "id": "ZONE_SOUTH_C",
      "properties": {
        "zone_id": "ZONE_SOUTH_C",
        "name": "South Expansion Zone C",
        "status": "DEVELOPMENT_BENCH",
        "current_bench_level": "-60m RL",
        "active_equipment_count": 2,
        "daily_target_tons": 250,
        "safety_clearance": "RESTRICTED_MONSOON",
        "fill": "#f59e0b",
        "fill-opacity": 0.35
      },
      "geometry": {
        "type": "Polygon",
        "coordinates": [
          [
            [
              80.176,
              21.804
            ],
            [
              80.187,
              21.804
            ],
            [
              80.1865,
              21.809
            ],
            [
              80.1755,
              21.809
            ],
            [
              80.176,
              21.804
            ]
          ]
        ]
      }
    },
    {
      "type": "Feature",
      "id": "ZONE_EAST_D",
      "properties": {
        "zone_id": "ZONE_EAST_D",
        "name": "East Exploration Block D",
        "status": "GEOLOGICAL_PROSPECTING",
        "current_bench_level": "Surface (+320m RL)",
        "active_equipment_count": 1,
        "daily_target_tons": 0,
        "safety_clearance": "APPROVED",
        "fill": "#8b5cf6",
        "fill-opacity": 0.35
      },
      "geometry": {
        "type": "Polygon",
        "coordinates": [
          [
            [
              80.191,
              21.811
            ],
            [
              80.199,
              21.811
            ],
            [
              80.1985,
              21.816
            ],
            [
              80.1905,
              21.816
            ],
            [
              80.191,
              21.811
            ]
          ]
        ]
      }
    },
    {
      "type": "Feature",
      "id": "ZONE_WEST_E",
      "properties": {
        "zone_id": "ZONE_WEST_E",
        "name": "West Overburden Dump E",
        "status": "WASTE_STABILIZATION",
        "current_bench_level": "Surface (+340m RL)",
        "active_equipment_count": 1,
        "daily_target_tons": 0,
        "safety_clearance": "RESTRICTED",
        "fill": "#64748b",
        "fill-opacity": 0.35
      },
      "geometry": {
        "type": "Polygon",
        "coordinates": [
          [
            [
              80.17,
              21.808
            ],
            [
              80.178,
              21.808
            ],
            [
              80.1775,
              21.813
            ],
            [
              80.1695,
              21.813
            ],
            [
              80.17,
              21.808
            ]
          ]
        ]
      }
    }
  ]
}